[
    {
        "Altitude(m)": 622200.0754109599,
        "Argument of Periapsis(deg)": 0.0,
        "Eccentricity": 0.0,
        "Inclination(deg)": 60.0,
        "Latitude(deg)": -52.16245048740779,
        "Longitude(deg)": 87.36078036714451,
        "Mean Anomaly(deg)": -65.45449999999998,
        "RAAN(deg)": 235.0,
        "Satellite Name": "Test1 1052",
        "Satellite Number": 1052,
        "Semi-Major Axis(m)": 6980739.136638005,
        "Time(s)": 0
    },
    {
        "Altitude(m)": 622058.2429578613,
        "Argument of Periapsis(deg)": 0.00010418945913296404,
        "Eccentricity": 0.0,
        "Inclination(deg)": 60.0,
        "Latitude(deg)": -51.79919985071666,
        "Longitude(deg)": 88.12883639935507,
        "Mean Anomaly(deg)": -64.83439385453813,
        "RAAN(deg)": 234.99957995086027,
        "Satellite Name": "Test1 1052",
        "Satellite Number": 1052,
        "Semi-Major Axis(m)": 6980739.136638005,
        "Time(s)": 10
    },
    {
        "Altitude(m)": 621913.6772280962,
        "Argument of Periapsis(deg)": 0.0002083789182659281,
        "Eccentricity": 0.0,
        "Inclination(deg)": 60.0,
        "Latitude(deg)": -51.43043765743217,
        "Longitude(deg)": 88.88391372448108,
        "Mean Anomaly(deg)": -64.21428770907627,
        "RAAN(deg)": 234.99915990172047,
        "Satellite Name": "Test1 1052",
        "Satellite Number": 1052,
        "Semi-Major Axis(m)": 6980739.136638005,
        "Time(s)": 20
    },
    {
        "Altitude(m)": 621766.4346611212,
        "Argument of Periapsis(deg)": 0.00031256837739889213,
        "Eccentricity": 0.0,
        "Inclination(deg)": 60.0,
        "Latitude(deg)": -51.056321027432666,
        "Longitude(deg)": 89.62620203898732,
        "Mean Anomaly(deg)": -63.59418156361448,
        "RAAN(deg)": 234.9987398525808,
        "Satellite Name": "Test1 1052",
        "Satellite Number": 1052,
        "Semi-Major Axis(m)": 6980739.136638005,
        "Time(s)": 30
    },
    {
        "Altitude(m)": 621616.5727127914,
        "Argument of Periapsis(deg)": 0.0004167578365318562,
        "Eccentricity": 0.0,
        "Inclination(deg)": 60.0,
        "Latitude(deg)": -50.677003390088146,
        "Longitude(deg)": 90.35589880471302,
        "Mean Anomaly(deg)": -62.974075418152616,
        "RAAN(deg)": 234.99831980344103,
        "Satellite Name": "Test1 1052",
        "Satellite Number": 1052,
        "Semi-Major Axis(m)": 6980739.136638005,
        "Time(s)": 40
    },
    {
        "Altitude(m)": 621464.149830764,
        "Argument of Periapsis(deg)": 0.0005209472956648203,
        "Eccentricity": 0.0,
        "Inclination(deg)": 60.0,
        "Latitude(deg)": -50.29263445725725,
        "Longitude(deg)": 91.07320719904986,
        "Mean Anomaly(deg)": -62.35396927269076,
        "RAAN(deg)": 234.99789975430124,
        "Satellite Name": "Test1 1052",
        "Satellite Number": 1052,
        "Semi-Major Axis(m)": 6980739.136638005,
        "Time(s)": 50
    },
    {
        "Altitude(m)": 621309.2254294372,
        "Argument of Periapsis(deg)": 0.0006251367547977843,
        "Eccentricity": 0.0,
        "Inclination(deg)": 60.0,
        "Latitude(deg)": -49.903360210837675,
        "Longitude(deg)": 91.77833564733704,
        "Mean Anomaly(deg)": -61.73386312722902,
        "RAAN(deg)": 234.9974797051615,
        "Satellite Name": "Test1 1052",
        "Satellite Number": 1052,
        "Semi-Major Axis(m)": 6980739.136638005,
        "Time(s)": 60
    },
    {
        "Altitude(m)": 621151.8598644864,
        "Argument of Periapsis(deg)": 0.0007293262139307483,
        "Eccentricity": 0.0,
        "Inclination(deg)": 60.0,
        "Latitude(deg)": -49.5093229034678,
        "Longitude(deg)": 92.47149742319684,
        "Mean Anomaly(deg)": -61.11375698176711,
        "RAAN(deg)": 234.99705965602183,
        "Satellite Name": "Test1 1052",
        "Satellite Number": 1052,
        "Semi-Major Axis(m)": 6980739.136638005,
        "Time(s)": 70
    },
    {
        "Altitude(m)": 620992.1144069456,
        "Argument of Periapsis(deg)": 0.0008335156730637124,
        "Eccentricity": 0.0,
        "Inclination(deg)": 60.0,
        "Latitude(deg)": -49.11066107104801,
        "Longitude(deg)": 93.15290880211711,
        "Mean Anomaly(deg)": -60.493650836305356,
        "RAAN(deg)": 234.99663960688204,
        "Satellite Name": "Test1 1052",
        "Satellite Number": 1052,
        "Semi-Major Axis(m)": 6980739.136638005,
        "Time(s)": 80
    },
    {
        "Altitude(m)": 620830.0512168915,
        "Argument of Periapsis(deg)": 0.0009377051321966765,
        "Eccentricity": 0.0,
        "Inclination(deg)": 60.0,
        "Latitude(deg)": -48.70750955581951,
        "Longitude(deg)": 93.82278879186848,
        "Mean Anomaly(deg)": -59.87354469084352,
        "RAAN(deg)": 234.99621955774228,
        "Satellite Name": "Test1 1052",
        "Satellite Number": 1052,
        "Semi-Major Axis(m)": 6980739.136638005,
        "Time(s)": 90
    },
    {
        "Altitude(m)": 620665.733316731,
        "Argument of Periapsis(deg)": 0.0010418945913296407,
        "Eccentricity": 0.0,
        "Inclination(deg)": 60.0,
        "Latitude(deg)": -48.299999538819726,
        "Longitude(deg)": 94.4813589244638,
        "Mean Anomaly(deg)": -59.253438545381655,
        "RAAN(deg)": 234.99579950860254,
        "Satellite Name": "Test1 1052",
        "Satellite Number": 1052,
        "Semi-Major Axis(m)": 6980739.136638005,
        "Time(s)": 100
    },
    {
        "Altitude(m)": 620499.224564078,
        "Argument of Periapsis(deg)": 0.0011460840504626045,
        "Eccentricity": 0.0,
        "Inclination(deg)": 60.0,
        "Latitude(deg)": -47.88825858060565,
        "Longitude(deg)": 95.12884159417777,
        "Mean Anomaly(deg)": -58.63333239991985,
        "RAAN(deg)": 234.9953794594628,
        "Satellite Name": "Test1 1052",
        "Satellite Number": 1052,
        "Semi-Major Axis(m)": 6980739.136638005,
        "Time(s)": 110
    },
    {
        "Altitude(m)": 620330.589624249,
        "Argument of Periapsis(deg)": 0.0012502735095955685,
        "Eccentricity": 0.0,
        "Inclination(deg)": 60.0,
        "Latitude(deg)": -47.47241066921421,
        "Longitude(deg)": 95.76545996460864,
        "Mean Anomaly(deg)": -58.013226254458,
        "RAAN(deg)": 234.99495941032308,
        "Satellite Name": "Test1 1052",
        "Satellite Number": 1052,
        "Semi-Major Axis(m)": 6980739.136638005,
        "Time(s)": 120
    },
    {
        "Altitude(m)": 620159.893942419,
        "Argument of Periapsis(deg)": 0.0013544629687285324,
        "Eccentricity": 0.0,
        "Inclination(deg)": 60.0,
        "Latitude(deg)": -47.05257627440578,
        "Longitude(deg)": 96.39143792906494,
        "Mean Anomaly(deg)": -57.39312010899625,
        "RAAN(deg)": 234.9945393611833,
        "Satellite Name": "Test1 1052",
        "Satellite Number": 1052,
        "Semi-Major Axis(m)": 6980739.136638005,
        "Time(s)": 130
    },
    {
        "Altitude(m)": 619987.2037153775,
        "Argument of Periapsis(deg)": 0.0014586524278614966,
        "Eccentricity": 0.0,
        "Inclination(deg)": 60.0,
        "Latitude(deg)": -46.6288724073068,
        "Longitude(deg)": 97.00699860851213,
        "Mean Anomaly(deg)": -56.773013963534396,
        "RAAN(deg)": 234.99411931204358,
        "Satellite Name": "Test1 1052",
        "Satellite Number": 1052,
        "Semi-Major Axis(m)": 6980739.136638005,
        "Time(s)": 140
    },
    {
        "Altitude(m)": 619812.5858629614,
        "Argument of Periapsis(deg)": 0.0015628418869944607,
        "Eccentricity": 0.0,
        "Inclination(deg)": 60.0,
        "Latitude(deg)": -46.20141268464326,
        "Longitude(deg)": 97.61236440990933,
        "Mean Anomaly(deg)": -56.15290781807259,
        "RAAN(deg)": 234.99369926290385,
        "Satellite Name": "Test1 1052",
        "Satellite Number": 1052,
        "Semi-Major Axis(m)": 6980739.136638005,
        "Time(s)": 150
    },
    {
        "Altitude(m)": 619636.1079991442,
        "Argument of Periapsis(deg)": 0.0016670313461274247,
        "Eccentricity": 0.0,
        "Inclination(deg)": 60.0,
        "Latitude(deg)": -45.77030739682048,
        "Longitude(deg)": 98.20775712918001,
        "Mean Anomaly(deg)": -55.53280167261074,
        "RAAN(deg)": 234.9932792137641,
        "Satellite Name": "Test1 1052",
        "Satellite Number": 1052,
        "Semi-Major Axis(m)": 6980739.136638005,
        "Time(s)": 160
    },
    {
        "Altitude(m)": 619457.8384028143,
        "Argument of Periapsis(deg)": 0.0017712208052603888,
        "Eccentricity": 0.0,
        "Inclination(deg)": 60.0,
        "Latitude(deg)": -45.33566357917425,
        "Longitude(deg)": 98.79339658309877,
        "Mean Anomaly(deg)": -54.91269552714889,
        "RAAN(deg)": 234.99285916462435,
        "Satellite Name": "Test1 1052",
        "Satellite Number": 1052,
        "Semi-Major Axis(m)": 6980739.136638005,
        "Time(s)": 170
    },
    {
        "Altitude(m)": 619277.8459882053,
        "Argument of Periapsis(deg)": 0.001875410264393353,
        "Eccentricity": 0.0,
        "Inclination(deg)": 60.0,
        "Latitude(deg)": -44.89758508577704,
        "Longitude(deg)": 99.36950079305652,
        "Mean Anomaly(deg)": -54.29258938168704,
        "RAAN(deg)": 234.99243911548461,
        "Satellite Name": "Test1 1052",
        "Satellite Number": 1052,
        "Semi-Major Axis(m)": 6980739.136638005,
        "Time(s)": 180
    },
    {
        "Altitude(m)": 619096.2002750732,
        "Argument of Periapsis(deg)": 0.0019795997235263173,
        "Eccentricity": 0.0,
        "Inclination(deg)": 60.0,
        "Latitude(deg)": -44.45617266524335,
        "Longitude(deg)": 99.93628620513554,
        "Mean Anomaly(deg)": -53.67248323622523,
        "RAAN(deg)": 234.99201906634488,
        "Satellite Name": "Test1 1052",
        "Satellite Number": 1052,
        "Semi-Major Axis(m)": 6980739.136638005,
        "Time(s)": 190
    }
]